[{"OBJECT_NAME":"YAOGAN-36 04C","OBJECT_ID":"2022-171E","EPOCH":"2026-03-09T18:55:44.889600","MEAN_MOTION":15.29852307,"ECCENTRICITY":0.00066848,"INCLINATION":34.9797,"RA_OF_ASC_NODE":96.6578,"ARG_OF_PERICENTER":275.3761,"MEAN_ANOMALY":84.6192,"EPHEMERIS_TYPE":0,"CLASSIFICATION_TYPE":"U","NORAD_CAT_ID":54750,"ELEMENT_SET_NO":999,"REV_AT_EPOCH":18024,"BSTAR":0.00054591902,"MEAN_MOTION_DOT":0.00016196,"MEAN_MOTION_DDOT":0},{"OBJECT_NAME":"STARLINK-35225","OBJECT_ID":"2025-210E","EPOCH":"2026-03-09T21:26:51.073152","MEAN_MOTION":15.30213363,"ECCENTRICITY":7.484e-5,"INCLINATION":53.1584,"RA_OF_ASC_NODE":306.0415,"ARG_OF_PERICENTER":126.8605,"MEAN_ANOMALY":233.2465,"EPHEMERIS_TYPE":0,"CLASSIFICATION_TYPE":"U","NORAD_CAT_ID":65626,"ELEMENT_SET_NO":999,"REV_AT_EPOCH":2776,"BSTAR":0.00094892243,"MEAN_MOTION_DOT":0.00027862,"MEAN_MOTION_DDOT":0}]
